IRIDIUM 7               
1 24793U 97020B   24312.41613588  .00001961  00000+0  67434-3 0  9994
2 24793  86.3929 269.8012 0002581  91.6051 268.5441 14.35577593440074
IRIDIUM 5               
1 24795U 97020D   24312.62183981  .00011126  00000+0  99442-3 0  9996
2 24795  86.3954 185.5611 0114198 210.9023 148.5452 14.90840744452418
IRIDIUM 4               
1 24796U 97020E   24312.60945072  .00002089  00000+0  70580-3 0  9992
2 24796  86.3928 266.7398 0002317  90.3190 269.8273 14.36493405440657
IRIDIUM 914             
1 24836U 97030A   24312.46161503  .00002415  00000+0  75445-3 0  9999
2 24836  86.3898 276.0771 0001436 132.9022 227.2298 14.40427046575203
IRIDIUM 16              
1 24841U 97030F   24312.57796487  .00002109  00000+0  68698-3 0  9994
2 24841  86.3990 298.3983 0004495  81.8614 278.3094 14.38298774435141
IRIDIUM 911             
1 24842U 97030G   24312.40443257  .00002771  00000+0  75469-3 0  9990
2 24842  86.4414 297.4658 0016440 113.4857 246.8076 14.47065659443005
IRIDIUM 17              
1 24870U 97034B   24312.49763526  .00001795  00000+0  59439-3 0  9992
2 24870  86.3941 328.0103 0003188  61.9177 298.2342 14.37404290431734
IRIDIUM 920             
1 24871U 97034C   24312.48505403  .00002046  00000+0  62879-3 0  9992
2 24871  86.3937 307.7465 0013876  93.0706 267.2081 14.41102828434640
